{"type": "FeatureCollection", "features": [ {"type": "Feature", "properties": {"norad_id": 66483, "name": "STARLINK-35654", "group": "last-30-days", "lat": -37.731815597641294, "lon": -34.62273646211457, "alt_km": 416.63695185933284, "timestamp": "2025-12-09T14:52:24.941132+00:00", "meta": {"OBJECT_NAME": "STARLINK-35654", "OBJECT_ID": "2025-262AD", "EPOCH": "2025-12-09T04:33:06.687936", "MEAN_MOTION": 15.5063453, "ECCENTRICITY": 0.00022278, "INCLINATION": 43.0008, "RA_OF_ASC_NODE": 91.7599, "ARG_OF_PERICENTER": 290.4081, "MEAN_ANOMALY": 69.6539, "EPHEMERIS_TYPE": 0, "CLASSIFICATION_TYPE": "U", "NORAD_CAT_ID": 66483, "ELEMENT_SET_NO": 999, "REV_AT_EPOCH": 501, "BSTAR": 0.002627657, "MEAN_MOTION_DOT": 0.0015726, "MEAN_MOTION_DDOT": 0}, "tle": {"line1": "1 66483U 25262AD  25343.18966074  .00157260  00000+0  26277-2 0  9998", "line2": "2 66483  43.0008  91.7599 0002227 290.4081  69.6539 15.50634530  5017"}}, "geometry": {"type": "Point", "coordinates": [-34.62273646211457, -37.731815597641294]}}, {"type": "Feature", "properties": {"norad_id": 66484, "name": "STARLINK-35371", "group": "last-30-days", "lat": -38.43319529869728, "lon": -32.37972211398078, "alt_km": 416.65854553789904, "timestamp": "2025-12-09T14:52:24.941144+00:00", "meta": {"OBJECT_NAME": "STARLINK-35371", "OBJECT_ID": "2025-262AE", "EPOCH": "2025-12-09T04:32:37.140864", "MEAN_MOTION": 15.50630983, "ECCENTRICITY": 0.00023532, "INCLINATION": 43.0006, "RA_OF_ASC_NODE": 91.758, "ARG_OF_PERICENTER": 294.1816, "MEAN_ANOMALY": 65.8798, "EPHEMERIS_TYPE": 0, "CLASSIFICATION_TYPE": "U", "NORAD_CAT_ID": 66484, "ELEMENT_SET_NO": 999, "REV_AT_EPOCH": 501, "BSTAR": 0.002665705, "MEAN_MOTION_DOT": 0.0015957, "MEAN_MOTION_DDOT": 0}, "tle": {"line1": "1 66484U 25262AE  25343.18931876  .00159570  00000+0  26657-2 0  9999", "line2": "2 66484  43.0006  91.7580 0002353 294.1816  65.8798 15.50630983  5016"}}, "geometry": {"type": "Point", "coordinates": [-32.37972211398078, -38.43319529869728]}}, {"type": "Feature", "properties": {"norad_id": 66485, "name": "STARLINK-34774", "group": "last-30-days", "lat": 35.89319631577807, "lon": -87.52325247195752, "alt_km": 420.06632946958507, "timestamp": "2025-12-09T14:52:24.941156+00:00", "meta": {"OBJECT_NAME": "STARLINK-34774", "OBJECT_ID": "2025-263A", "EPOCH": "2025-12-09T06:00:02.000160", "MEAN_MOTION": 15.48976217, "ECCENTRICITY": 0.00013729, "INCLINATION": 43.0007, "RA_OF_ASC_NODE": 145.5826, "ARG_OF_PERICENTER": 266.4801, "MEAN_ANOMALY": 311.2241, "EPHEMERIS_TYPE": 0, "CLASSIFICATION_TYPE": "U", "NORAD_CAT_ID": 66485, "ELEMENT_SET_NO": 999, "REV_AT_EPOCH": 507, "BSTAR": -0.042418853, "MEAN_MOTION_DOT": -0.02088222, "MEAN_MOTION_DDOT": 0}, "tle": {"line1": "1 66485U 25263A   25343.25002315 -.02088222  00000+0 -42419-1 0  9998", "line2": "2 66485  43.0007 145.5826 0001372 266.4801 311.2241 15.48976217  5072"}}, "geometry": {"type": "Point", "coordinates": [-87.52325247195752, 35.89319631577807]}}, {"type": "Feature", "properties": {"norad_id": 66486, "name": "STARLINK-34844", "group": "last-30-days", "lat": 33.01069979151668, "lon": -80.78871839117497, "alt_km": 410.82867847682337, "timestamp": "2025-12-09T14:52:24.941169+00:00", "meta": {"OBJECT_NAME": "STARLINK-34844", "OBJECT_ID": "2025-263B", "EPOCH": "2025-12-09T06:00:02.000160", "MEAN_MOTION": 15.50679985, "ECCENTRICITY": 0.00014655, "INCLINATION": 43.0006, "RA_OF_ASC_NODE": 145.575, "ARG_OF_PERICENTER": 273.5834, "MEAN_ANOMALY": 307.0765, "EPHEMERIS_TYPE": 0, "CLASSIFICATION_TYPE": "U", "NORAD_CAT_ID": 66486, "ELEMENT_SET_NO": 999, "REV_AT_EPOCH": 502, "BSTAR": -0.0036731873, "MEAN_MOTION_DOT": -0.00210888, "MEAN_MOTION_DDOT": 0}, "tle": {"line1": "1 66486U 25263B   25343.25002315 -.00210888  00000+0 -36732-2 0  9994", "line2": "2 66486  43.0006 145.5750 0001465 273.5834 307.0765 15.50679985  5020"}}, "geometry": {"type": "Point", "coordinates": [-80.78871839117497, 33.01069979151668]}}, {"type": "Feature", "properties": {"norad_id": 66487, "name": "STARLINK-34733", "group": "last-30-days", "lat": 32.05539391233073, "lon": -78.81335494055105, "alt_km": 410.91165934306537, "timestamp": "2025-12-09T14:52:24.941179+00:00", "meta": {"OBJECT_NAME": "STARLINK-34733", "OBJECT_ID": "2025-263C", "EPOCH": "2025-12-09T06:00:02.000160", "MEAN_MOTION": 15.50684599, "ECCENTRICITY": 0.00014357, "INCLINATION": 43.0007, "RA_OF_ASC_NODE": 145.5711, "ARG_OF_PERICENTER": 268.7624, "MEAN_ANOMALY": 313.819, "EPHEMERIS_TYPE": 0, "CLASSIFICATION_TYPE": "U", "NORAD_CAT_ID": 66487, "ELEMENT_SET_NO": 999, "REV_AT_EPOCH": 507, "BSTAR": -0.0038689108, "MEAN_MOTION_DOT": -0.00221836, "MEAN_MOTION_DDOT": 0}, "tle": {"line1": "1 66487U 25263C   25343.25002315 -.00221836  00000+0 -38689-2 0  9993", "line2": "2 66487  43.0007 145.5711 0001435 268.7624 313.8190 15.50684599  5078"}}, "geometry": {"type": "Point", "coordinates": [-78.81335494055105, 32.05539391233073]}}, {"type": "Feature", "properties": {"norad_id": 66488, "name": "STARLINK-35515", "group": "last-30-days", "lat": 31.07546660680921, "lon": -76.8919683480423, "alt_km": 411.04385117432685, "timestamp": "2025-12-09T14:52:24.941190+00:00", "meta": {"OBJECT_NAME": "STARLINK-35515", "OBJECT_ID": "2025-263D", "EPOCH": "2025-12-09T06:00:02.000160", "MEAN_MOTION": 15.50662606, "ECCENTRICITY": 0.00014444, "INCLINATION": 43.0005, "RA_OF_ASC_NODE": 145.5658, "ARG_OF_PERICENTER": 270.9974, "MEAN_ANOMALY": 313.5016, "EPHEMERIS_TYPE": 0, "CLASSIFICATION_TYPE": "U", "NORAD_CAT_ID": 66488, "ELEMENT_SET_NO": 999, "REV_AT_EPOCH": 507, "BSTAR": -0.0031341123, "MEAN_MOTION_DOT": -0.00180567, "MEAN_MOTION_DDOT": 0}, "tle": {"line1": "1 66488U 25263D   25343.25002315 -.00180567  00000+0 -31341-2 0  9997", "line2": "2 66488  43.0005 145.5658 0001444 270.9974 313.5016 15.50662606  5079"}}, "geometry": {"type": "Point", "coordinates": [-76.8919683480423, 31.07546660680921]}}, {"type": "Feature", "properties": {"norad_id": 66489, "name": "STARLINK-35696", "group": "last-30-days", "lat": 30.074697463534783, "lon": -75.0222057624117, "alt_km": 411.33276625085455, "timestamp": "2025-12-09T14:52:24.941200+00:00", "meta": {"OBJECT_NAME": "STARLINK-35696", "OBJECT_ID": "2025-263E", "EPOCH": "2025-12-09T06:00:02.000160", "MEAN_MOTION": 15.50601301, "ECCENTRICITY": 0.00016476, "INCLINATION": 43.0005, "RA_OF_ASC_NODE": 145.5615, "ARG_OF_PERICENTER": 275.1388, "MEAN_ANOMALY": 311.2987, "EPHEMERIS_TYPE": 0, "CLASSIFICATION_TYPE": "U", "NORAD_CAT_ID": 66489, "ELEMENT_SET_NO": 999, "REV_AT_EPOCH": 507, "BSTAR": -0.0017362972, "MEAN_MOTION_DOT": -0.00100981, "MEAN_MOTION_DDOT": 0}, "tle": {"line1": "1 66489U 25263E   25343.25002315 -.00100981  00000+0 -17363-2 0  9998", "line2": "2 66489  43.0005 145.5615 0001647 275.1388 311.2987 15.50601301  5071"}}, "geometry": {"type": "Point", "coordinates": [-75.0222057624117, 30.074697463534783]}}, {"type": "Feature", "properties": {"norad_id": 66490, "name": "STARLINK-35693", "group": "last-30-days", "lat": 29.02864301764929, "lon": -73.15817713898662, "alt_km": 411.3948679305622, "timestamp": "2025-12-09T14:52:24.941212+00:00", "meta": {"OBJECT_NAME": "STARLINK-35693", "OBJECT_ID": "2025-263F", "EPOCH": "2025-12-09T06:00:02.000160", "MEAN_MOTION": 15.50654474, "ECCENTRICITY": 0.00015549, "INCLINATION": 43.0006, "RA_OF_ASC_NODE": 145.5559, "ARG_OF_PERICENTER": 275.5152, "MEAN_ANOMALY": 312.8079, "EPHEMERIS_TYPE": 0, "CLASSIFICATION_TYPE": "U", "NORAD_CAT_ID": 66490, "ELEMENT_SET_NO": 999, "REV_AT_EPOCH": 507, "BSTAR": -0.0025995677, "MEAN_MOTION_DOT": -0.0015036, "MEAN_MOTION_DDOT": 0}, "tle": {"line1": "1 66490U 25263F   25343.25002315 -.00150360  00000+0 -25996-2 0  9997", "line2": "2 66490  43.0006 145.5559 0001554 275.5152 312.8079 15.50654474  5079"}}, "geometry": {"type": "Point", "coordinates": [-73.15817713898662, 29.02864301764929]}}, {"type": "Feature", "properties": {"norad_id": 66491, "name": "STARLINK-35663", "group": "last-30-days", "lat": 26.872366501075735, "lon": -69.55749763224378, "alt_km": 411.70415379090355, "timestamp": "2025-12-09T14:52:24.941223+00:00", "meta": {"OBJECT_NAME": "STARLINK-35663", "OBJECT_ID": "2025-263G", "EPOCH": "2025-12-09T06:00:02.000160", "MEAN_MOTION": 15.50678656, "ECCENTRICITY": 0.00015485, "INCLINATION": 43.0006, "RA_OF_ASC_NODE": 145.5463, "ARG_OF_PERICENTER": 270.3697, "MEAN_ANOMALY": 321.7997, "EPHEMERIS_TYPE": 0, "CLASSIFICATION_TYPE": "U", "NORAD_CAT_ID": 66491, "ELEMENT_SET_NO": 999, "REV_AT_EPOCH": 507, "BSTAR": -0.0036739368, "MEAN_MOTION_DOT": -0.00210923, "MEAN_MOTION_DDOT": 0}, "tle": {"line1": "1 66491U 25263G   25343.25002315 -.00210923  00000+0 -36739-2 0  9997", "line2": "2 66491  43.0006 145.5463 0001548 270.3697 321.7997 15.50678656  5070"}}, "geometry": {"type": "Point", "coordinates": [-69.55749763224378, 26.872366501075735]}}, {"type": "Feature", "properties": {"norad_id": 66492, "name": "STARLINK-35673", "group": "last-30-days", "lat": 26.78032945394936, "lon": -69.41106769671595, "alt_km": 417.9494040404634, "timestamp": "2025-12-09T14:52:24.941235+00:00", "meta": {"OBJECT_NAME": "STARLINK-35673", "OBJECT_ID": "2025-263H", "EPOCH": "2025-12-09T06:00:02.000160", "MEAN_MOTION": 15.50202168, "ECCENTRICITY": 0.00016054, "INCLINATION": 43.0005, "RA_OF_ASC_NODE": 145.541, "ARG_OF_PERICENTER": 270.5014, "MEAN_ANOMALY": 323.5081, "EPHEMERIS_TYPE": 0, "CLASSIFICATION_TYPE": "U", "NORAD_CAT_ID": 66492, "ELEMENT_SET_NO": 999, "REV_AT_EPOCH": 507, "BSTAR": -0.04110633, "MEAN_MOTION_DOT": -0.02111358, "MEAN_MOTION_DDOT": 0}, "tle": {"line1": "1 66492U 25263H   25343.25002315 -.02111358  00000+0 -41106-1 0  9995", "line2": "2 66492  43.0005 145.5410 0001605 270.5014 323.5081 15.50202168  5076"}}, "geometry": {"type": "Point", "coordinates": [-69.41106769671595, 26.78032945394936]}}]}